[{"OBJECT_NAME":"STARLINK-4141","OBJECT_ID":"2022-083G","EPOCH":"2026-03-09T14:28:53.151744","MEAN_MOTION":15.08827996,"ECCENTRICITY":0.0001298,"INCLINATION":53.2178,"RA_OF_ASC_NODE":169.69,"ARG_OF_PERICENTER":88.4407,"MEAN_ANOMALY":271.6733,"EPHEMERIS_TYPE":0,"CLASSIFICATION_TYPE":"U","NORAD_CAT_ID":53138,"ELEMENT_SET_NO":999,"REV_AT_EPOCH":20204,"BSTAR":0.00013861,"MEAN_MOTION_DOT":1.918e-5,"MEAN_MOTION_DDOT":0},{"OBJECT_NAME":"DMSP 5D-2 F11 DEB","OBJECT_ID":"1991-082AJ","EPOCH":"2026-03-09T06:39:32.486112","MEAN_MOTION":15.08629375,"ECCENTRICITY":0.00070318,"INCLINATION":98.5181,"RA_OF_ASC_NODE":189.4283,"ARG_OF_PERICENTER":237.8685,"MEAN_ANOMALY":152.6153,"EPHEMERIS_TYPE":0,"CLASSIFICATION_TYPE":"U","NORAD_CAT_ID":28321,"ELEMENT_SET_NO":999,"REV_AT_EPOCH":14288,"BSTAR":0.0082823802,"MEAN_MOTION_DOT":0.00131946,"MEAN_MOTION_DDOT":0}]
